UNISAT-6                
1 40012U 14033C   26007.99142663  .00003780  00000+0  42001-3 0  9990
2 40012  97.7637 163.8587 0045077 235.7302 123.9641 14.87048092622347
DEIMOS-2                
1 40013U 14033D   26008.18668931  .00002180  00000+0  21439-3 0  9999
2 40013  97.6041 248.1150 0001822  98.0978 262.0449 14.93113591613848
BUGSAT-1 (TITA)         
1 40014U 14033E   26008.16755185  .00006570  00000+0  36560-3 0  9994
2 40014  98.0527  91.5579 0029417   8.9917 351.1833 15.13660681631613
SAUDISAT 4              
1 40016U 14033G   26008.16009207  .00001052  00000+0  14635-3 0  9992
2 40016  97.7317 160.0946 0043957 233.2988 126.4182 14.79235126622415
APRIZESAT 9             
1 40018U 14033J   26007.94448644  .00000673  00000+0  10686-3 0  9991
2 40018  97.8807 145.3321 0066383 356.7201   3.3563 14.73934678619955
BRITE-CA1 (TORONTO)     
1 40020U 14033L   26008.07838763  .00001088  00000+0  17156-3 0  9994
2 40020  97.9505 140.2354 0080329  69.8790 291.1038 14.72296091618654
DUCHIFAT-1              
1 40021U 14033M   26008.06190826  .00038224  00000+0  86542-3 0  9992
2 40021  98.0746  47.6628 0005012 298.1571  61.9168 15.43019450630908
NANOSATC-BR1            
1 40024U 14033Q   26008.03557976  .00014897  00000+0  58791-3 0  9990
2 40024  98.0890  26.7934 0005044  42.4522 317.7104 15.25646699629518
QB50P1                  
1 40025U 14033R   26007.97769134  .00008611  00000+0  46349-3 0  9997
2 40025  98.0982   8.2495 0011038  60.2772 299.9555 15.15063985628748
DTUSAT-2                
1 40030U 14033W   26001.19381260  .00013666  00000+0  79601-3 0  9994
2 40030  98.0762 348.7616 0010218  84.7780 275.4615 15.12101875627424
QB50P2                  
1 40032U 14033Y   26007.95219381  .00008126  00000+0  47203-3 0  9998
2 40032  98.0671 355.2638 0008227  16.5116 343.6379 15.12374328628426
PERSEUS-M1              
1 40039U 14033AF  26008.10475148  .00002432  00000+0  22815-3 0  9994
2 40039  97.9492 309.8541 0013307 106.6622 253.6060 14.94898511626719
POLYITAN-1              
1 40042U 14033AJ  26007.97471785  .00018306  00000+0  69667-3 0  9998
2 40042  98.1075  19.7544 0008048   2.5803 357.5474 15.26791256629095
TIGRISAT                
1 40043U 14033AK  26007.38776102  .00002834  00000+0  33738-3 0  9994
2 40043  97.7581 161.3962 0049007 241.5661 118.0611 14.84296644621761
AISAT                   
1 40054U 14034B   26008.15193116  .00009722  00000+0  68920-3 0  9995
2 40054  98.2487 269.2651 0011398  44.4730 315.7408 15.04966692623106
CANX-4                  
1 40055U 14034C   26008.10618932  .00001231  00000+0  16659-3 0  9998
2 40055  98.3344 237.3424 0013104 160.2672 199.9048 14.80875197620834
CANX-5                  
1 40056U 14034D   26008.17400455  .00001223  00000+0  16550-3 0  9996
2 40056  98.3347 237.4471 0013107 160.2195 199.9527 14.80891592611653
VELOX-I                 
1 40057U 14034E   26008.17777888  .00005192  00000+0  46851-3 0  9990
2 40057  98.2679 264.1920 0009149  80.1081 280.1171 14.95973484622660
GONETS-M 10             
1 40063U 14036C   26008.12997006  .00000066  00000+0  40661-3 0  9998
2 40063  82.5090  47.0894 0022834 129.6797 230.6302 12.42940579522368
METEOR-M 2              
1 40069U 14037A   26008.14591481  .00000343  00000+0  17632-3 0  9994
2 40069  98.4935 349.7218 0006402 132.8837 227.2879 14.21399625596589
DX1                     
1 40071U 14037C   26008.16314166  .00002774  00000+0  29910-3 0  9994
2 40071  98.3684 320.4370 0008840  74.9083 285.3110 14.89292911622288
UKUBE-1                 
1 40074U 14037F   26007.89445412  .00009338  00000+0  57313-3 0  9996
2 40074  98.4175 354.7793 0002169  42.7430 317.3965 15.10370312624332
GAOFEN-2                
1 40118U 14049A   26008.16496914  .00000379  00000+0  56258-4 0  9996
2 40118  98.0343  72.3749 0008253  39.6329 320.5485 14.80660723615551
BRITE-PL2 (HEWELIUSZ)   
1 40119U 14049B   26008.06004293  .00002622  00000+0  25234-3 0  9993
2 40119  97.8988 119.0599 0012817 282.2130  77.7653 14.93813744617538
CBERS 4                 
1 40336U 14079A   26008.21153362  .00000107  00000+0  51917-4 0  9990
2 40336  98.3265  70.3176 0001912  83.7471 276.3933 14.35530176581000
SMAP                    
1 40376U 15003A   26008.14849759  .00000547  00000+0  11486-3 0  9990
2 40376  98.1293  17.4924 0001319  94.4190 265.7162 14.63386086584216
GONETS-M 11             
1 40552U 15020A   26008.13947759  .00000162  00000+0  10975-2 0  9997
2 40552  82.4875 130.7231 0015493 354.3710   5.7193 12.42870125488854
GONETS-M 12             
1 40553U 15020B   26008.19541727  .00000076  00000+0  47473-3 0  9997
2 40553  82.4910 131.7698 0014296 338.3226  21.7247 12.42886073488854
GONETS-M 13             
1 40554U 15020C   26008.24666294  .00000169  00000+0  11523-2 0  9990
2 40554  82.4870 130.4001 0012752 322.1395  37.8786 12.42864847488836
DMC3-FM1                
1 40715U 15032A   26008.17505448  .00000696  00000+0  86600-4 0  9992
2 40715  97.6670 239.4031 0004481 209.1902 150.9064 14.85495662566154
DMC3-FM2                
1 40716U 15032B   26008.19751416  .00001405  00000+0  16874-3 0  9997
2 40716  97.6727 240.8877 0004892 215.9961 144.0926 14.85500349566158
DMC3-FM3                
1 40717U 15032C   26008.21942134  .00001197  00000+0  14472-3 0  9990
2 40717  97.6785 242.5595 0004190 214.8717 145.2224 14.85479797566164
CARBONITE 1 (CBNT-1)    
1 40718U 15032D   26008.16878699  .00000238  00000+0  35488-4 0  9995
2 40718  97.6408 193.0522 0015840  98.4137 261.8873 14.82891722565621
DEORBITSAIL             
1 40719U 15032E   26008.13137902  .00007902  00000+0  62242-3 0  9990
2 40719  97.6103 228.0853 0013214  55.0693 305.1770 15.00987264567212
2015-049G               
1 40905U 15049G   26008.19377532  .00026684  00000+0  39867-3 0  9991
2 40905  97.4815  43.8602 0008281  87.7334 272.4868 15.54972672571499
LILACSAT-2              
1 40908U 15049K   26008.15847187  .00014777  00000+0  30755-3 0  9995
2 40908  97.4885  39.3656 0009610 109.3446 250.8843 15.45674705570982
COSMOS 2507 (RODNIK-S *)
1 40920U 15050A   26008.20882464  .00000066  00000+0  40343-3 0  9994
2 40920  82.4917 179.2525 0009296 341.1402  18.9332 12.42920990466987
COSMOS 2508 (RODNIK-S *)
1 40921U 15050B   26008.16219980 -.00000096  00000+0 -76180-3 0  9990
2 40921  82.4869 177.8482 0013967  15.1978 344.9519 12.42907381466962
COSMOS 2509 (RODNIK-S *)
1 40922U 15050C   26008.18116521  .00000007  00000+0 -22033-4 0  9990
2 40922  82.4876 177.9269 0014570  33.7238 326.4766 12.42928130467001
LQSAT                   
1 40958U 15057A   26008.22002436  .00000562  00000+0  87326-4 0  9991
2 40958  97.6614   9.6146 0018631  72.9483 287.3767 14.76502992551702
LINGQIAO VIDEO A        
1 40959U 15057B   26008.23823781  .00001165  00000+0  17133-3 0  9995
2 40959  97.6566  11.0215 0018392  70.8413 289.4787 14.77099498551794
LINGQIAO VIDEO B        
1 40960U 15057C   26008.15759314  .00000995  00000+0  14697-3 0  9990
2 40960  97.6541  12.1446 0018550  71.2032 289.1190 14.77180947551824
JILIN-1                 
1 40961U 15057D   26008.17492661  .00000833  00000+0  12220-3 0  9993
2 40961  97.6486  15.5435 0018430  66.4149 293.8996 14.77862439551975
FOX-1A (AO-85)          
1 40967U 15058D   26008.19009088  .00002089  00000+0  19934-3 0  9993
2 40967  64.7758  55.8017 0132268 119.7069 241.7284 14.89887958 89727
SINOD-D 1               
1 40968U 15058E   26008.15524338  .00002708  00000+0  23177-3 0  9992
2 40968  64.7761  39.5041 0120639 117.5564 243.7867 14.94375804 92735
ELEKTRO-L 2             
1 41105U 15074A   26008.02310856 -.00000116  00000+0  00000+0 0  9996
2 41105   6.2924  72.5121 0004028 213.0737 175.8078  1.00270807 36900
DAMPE                   
1 41173U 15078A   26008.18818126  .00002121  00000+0  75015-4 0  9995
2 41173  97.4552  12.9297 0010487 287.6792  72.3303 15.30265031560073
ORBCOMM FM114           
1 41179U 15081A   26008.11829808  .00000681  00000+0  18127-3 0  9996
2 41179  47.0058  38.6619 0002567 210.6610 149.4126 14.58609978534384
ORBCOMM FM110           
1 41182U 15081D   26008.10767972  .00000970  00000+0  24236-3 0  9991
2 41182  47.0030  38.2011 0001745  33.2954 326.8042 14.58654081534256
ORBCOMM FM112           
1 41184U 15081F   26008.14494614  .00000819  00000+0  21027-3 0  9994
2 41184  46.9999 306.8546 0001620 221.4072 138.6691 14.58641579535585
ORBCOMM FM113           
1 41185U 15081G   26008.12226943  .00000934  00000+0  23484-3 0  9998
2 41185  47.0015 307.3221 0001541 235.8171 124.2568 14.58639013535566
ORBCOMM FM108           
1 41187U 15081J   26008.01660456  .00000535  00000+0  15012-3 0  9994
2 41187  47.0032 219.3406 0002624 182.4557 177.6316 14.58619981536692
ORBCOMM FM117           
1 41188U 15081K   26007.98199228  .00000482  00000+0  13885-3 0  9991
2 41188  46.9996 218.1895 0002986 188.6718 171.4116 14.58643602536739
ORBCOMM FM116           
1 41189U 15081L   26008.09938358  .00001101  00000+0  27028-3 0  9993
2 41189  47.0032 307.4087 0001760   7.2181 352.8730 14.58651538535561
CHUBUSAT-2              
1 41338U 16012B   26008.10832068  .00005885  00000+0  27036-3 0  9999
2 41338  30.9984 290.3904 0009579 246.1874 113.7762 15.18795306544042
CHUBUSAT-3              
1 41339U 16012C   26008.20334135  .00005714  00000+0  27776-3 0  9995
2 41339  31.0063 295.7984 0009801 239.4606 120.5067 15.16832277543877
HORYU-4                 
1 41340U 16012D   26007.40873263  .00050427  00000+0  75872-3 0  9999
2 41340  30.9928 133.3836 0005625 122.4117 237.7078 15.53527511545540
ZIYUAN 3-02 (ZY 3-02)   
1 41556U 16033A   26008.22767372  .00007090  00000+0  31734-3 0  9992
2 41556  97.4004  86.9500 0012552 151.5924 208.5998 15.21513693533667
CARTOSAT-2C             
1 41599U 16040A   26008.20777365  .00004760  00000+0  22778-3 0  9997
2 41599  97.4724  70.1813 0009333 335.2439  24.8346 15.19417630529426
